[{"OBJECT_NAME":"STARLINK-6117","OBJECT_ID":"2023-046AQ","EPOCH":"2026-02-28T01:47:09.430080","MEAN_MOTION":15.02536103,"ECCENTRICITY":0.00013319,"INCLINATION":43.003,"RA_OF_ASC_NODE":198.3854,"ARG_OF_PERICENTER":271.786,"MEAN_ANOMALY":88.283,"EPHEMERIS_TYPE":0,"CLASSIFICATION_TYPE":"U","NORAD_CAT_ID":56130,"ELEMENT_SET_NO":999,"REV_AT_EPOCH":16076,"BSTAR":6.7332622e-5,"MEAN_MOTION_DOT":7.06e-6,"MEAN_MOTION_DDOT":0},{"OBJECT_NAME":"STARLINK-6120","OBJECT_ID":"2023-046AR","EPOCH":"2026-02-27T15:52:00.587424","MEAN_MOTION":15.02539784,"ECCENTRICITY":0.00012259,"INCLINATION":43.0021,"RA_OF_ASC_NODE":200.4393,"ARG_OF_PERICENTER":267.1409,"MEAN_ANOMALY":92.9293,"EPHEMERIS_TYPE":0,"CLASSIFICATION_TYPE":"U","NORAD_CAT_ID":56131,"ELEMENT_SET_NO":999,"REV_AT_EPOCH":16070,"BSTAR":7.2551268e-5,"MEAN_MOTION_DOT":7.77e-6,"MEAN_MOTION_DDOT":0},{"OBJECT_NAME":"STARLINK-6071","OBJECT_ID":"2023-046AS","EPOCH":"2026-02-28T01:42:21.919392","MEAN_MOTION":15.02533154,"ECCENTRICITY":0.0001705,"INCLINATION":43.002,"RA_OF_ASC_NODE":198.3548,"ARG_OF_PERICENTER":268.5511,"MEAN_ANOMALY":91.5136,"EPHEMERIS_TYPE":0,"CLASSIFICATION_TYPE":"U","NORAD_CAT_ID":56132,"ELEMENT_SET_NO":999,"REV_AT_EPOCH":16076,"BSTAR":9.165058e-6,"MEAN_MOTION_DOT":-8.0e-7,"MEAN_MOTION_DDOT":0},{"OBJECT_NAME":"STARLINK-5566","OBJECT_ID":"2023-046AT","EPOCH":"2026-02-27T18:49:05.251584","MEAN_MOTION":15.02533131,"ECCENTRICITY":0.0001257,"INCLINATION":43.0041,"RA_OF_ASC_NODE":199.6411,"ARG_OF_PERICENTER":269.2494,"MEAN_ANOMALY":90.8204,"EPHEMERIS_TYPE":0,"CLASSIFICATION_TYPE":"U","NORAD_CAT_ID":56133,"ELEMENT_SET_NO":999,"REV_AT_EPOCH":16072,"BSTAR":1.981487e-5,"MEAN_MOTION_DOT":6.4e-7,"MEAN_MOTION_DDOT":0},{"OBJECT_NAME":"STARLINK-5564","OBJECT_ID":"2023-046AU","EPOCH":"2026-02-28T01:37:34.258368","MEAN_MOTION":15.02534076,"ECCENTRICITY":0.00013808,"INCLINATION":43.0035,"RA_OF_ASC_NODE":198.3333,"ARG_OF_PERICENTER":275.7781,"MEAN_ANOMALY":84.2904,"EPHEMERIS_TYPE":0,"CLASSIFICATION_TYPE":"U","NORAD_CAT_ID":56134,"ELEMENT_SET_NO":999,"REV_AT_EPOCH":16076,"BSTAR":2.7914763e-5,"MEAN_MOTION_DOT":1.73e-6,"MEAN_MOTION_DDOT":0},{"OBJECT_NAME":"STARLINK-5489","OBJECT_ID":"2023-046AW","EPOCH":"2026-02-28T01:31:10.769376","MEAN_MOTION":15.02546681,"ECCENTRICITY":0.00010922,"INCLINATION":43.0015,"RA_OF_ASC_NODE":198.3021,"ARG_OF_PERICENTER":279.8218,"MEAN_ANOMALY":80.2501,"EPHEMERIS_TYPE":0,"CLASSIFICATION_TYPE":"U","NORAD_CAT_ID":56136,"ELEMENT_SET_NO":999,"REV_AT_EPOCH":16076,"BSTAR":-3.9682724e-5,"MEAN_MOTION_DOT":-7.4e-6,"MEAN_MOTION_DDOT":0},{"OBJECT_NAME":"STARLINK-5090","OBJECT_ID":"2023-046AX","EPOCH":"2026-02-28T02:34:56.413632","MEAN_MOTION":15.02534483,"ECCENTRICITY":0.00010795,"INCLINATION":43.0027,"RA_OF_ASC_NODE":197.7708,"ARG_OF_PERICENTER":269.2083,"MEAN_ANOMALY":90.8635,"EPHEMERIS_TYPE":0,"CLASSIFICATION_TYPE":"U","NORAD_CAT_ID":56137,"ELEMENT_SET_NO":999,"REV_AT_EPOCH":16077,"BSTAR":1.9484235e-5,"MEAN_MOTION_DOT":6.0e-7,"MEAN_MOTION_DDOT":0},{"OBJECT_NAME":"STARLINK-4774","OBJECT_ID":"2023-046AY","EPOCH":"2026-02-27T15:47:13.246080","MEAN_MOTION":15.02534289,"ECCENTRICITY":0.00014587,"INCLINATION":43.0032,"RA_OF_ASC_NODE":200.4172,"ARG_OF_PERICENTER":271.6648,"MEAN_ANOMALY":88.4027,"EPHEMERIS_TYPE":0,"CLASSIFICATION_TYPE":"U","NORAD_CAT_ID":56138,"ELEMENT_SET_NO":999,"REV_AT_EPOCH":16070,"BSTAR":2.1223895e-5,"MEAN_MOTION_DOT":8.3e-7,"MEAN_MOTION_DDOT":0},{"OBJECT_NAME":"STARLINK-5375","OBJECT_ID":"2023-046BA","EPOCH":"2026-02-27T15:44:01.332672","MEAN_MOTION":15.02529343,"ECCENTRICITY":0.00015038,"INCLINATION":43.004,"RA_OF_ASC_NODE":200.3996,"ARG_OF_PERICENTER":279.0236,"MEAN_ANOMALY":81.0436,"EPHEMERIS_TYPE":0,"CLASSIFICATION_TYPE":"U","NORAD_CAT_ID":56140,"ELEMENT_SET_NO":999,"REV_AT_EPOCH":16070,"BSTAR":0.00011459098,"MEAN_MOTION_DOT":1.344e-5,"MEAN_MOTION_DDOT":0},{"OBJECT_NAME":"STARLINK-5377","OBJECT_ID":"2023-046BB","EPOCH":"2026-02-28T02:33:20.250432","MEAN_MOTION":15.02536649,"ECCENTRICITY":0.00012922,"INCLINATION":43.0033,"RA_OF_ASC_NODE":197.7601,"ARG_OF_PERICENTER":267.5043,"MEAN_ANOMALY":92.5651,"EPHEMERIS_TYPE":0,"CLASSIFICATION_TYPE":"U","NORAD_CAT_ID":56141,"ELEMENT_SET_NO":999,"REV_AT_EPOCH":16077,"BSTAR":6.2781703e-5,"MEAN_MOTION_DOT":6.45e-6,"MEAN_MOTION_DDOT":0},{"OBJECT_NAME":"STARLINK-5376","OBJECT_ID":"2023-046BC","EPOCH":"2026-02-27T15:39:13.953312","MEAN_MOTION":15.02531458,"ECCENTRICITY":9.997e-5,"INCLINATION":42.9995,"RA_OF_ASC_NODE":200.3681,"ARG_OF_PERICENTER":267.8593,"MEAN_ANOMALY":92.2135,"EPHEMERIS_TYPE":0,"CLASSIFICATION_TYPE":"U","NORAD_CAT_ID":56142,"ELEMENT_SET_NO":999,"REV_AT_EPOCH":16070,"BSTAR":0.0001035004,"MEAN_MOTION_DOT":1.195e-5,"MEAN_MOTION_DDOT":0},{"OBJECT_NAME":"STARLINK-5016","OBJECT_ID":"2023-046BD","EPOCH":"2026-02-28T02:25:21.217728","MEAN_MOTION":15.02532559,"ECCENTRICITY":0.00011892,"INCLINATION":43.0034,"RA_OF_ASC_NODE":197.7214,"ARG_OF_PERICENTER":264.8887,"MEAN_ANOMALY":95.1819,"EPHEMERIS_TYPE":0,"CLASSIFICATION_TYPE":"U","NORAD_CAT_ID":56143,"ELEMENT_SET_NO":999,"REV_AT_EPOCH":16077,"BSTAR":3.8012139e-5,"MEAN_MOTION_DOT":3.1e-6,"MEAN_MOTION_DDOT":0},{"OBJECT_NAME":"STARLINK-5374","OBJECT_ID":"2023-046BE","EPOCH":"2026-02-28T02:44:31.887744","MEAN_MOTION":15.02532734,"ECCENTRICITY":0.00013886,"INCLINATION":43.0029,"RA_OF_ASC_NODE":197.8176,"ARG_OF_PERICENTER":265.5378,"MEAN_ANOMALY":94.5305,"EPHEMERIS_TYPE":0,"CLASSIFICATION_TYPE":"U","NORAD_CAT_ID":56144,"ELEMENT_SET_NO":999,"REV_AT_EPOCH":16077,"BSTAR":3.2932037e-5,"MEAN_MOTION_DOT":2.41e-6,"MEAN_MOTION_DDOT":0},{"OBJECT_NAME":"STARLINK-5111","OBJECT_ID":"2023-046BG","EPOCH":"2026-02-28T02:28:33.038688","MEAN_MOTION":15.02531508,"ECCENTRICITY":0.00015707,"INCLINATION":43.0042,"RA_OF_ASC_NODE":197.7337,"ARG_OF_PERICENTER":267.3197,"MEAN_ANOMALY":92.7465,"EPHEMERIS_TYPE":0,"CLASSIFICATION_TYPE":"U","NORAD_CAT_ID":56146,"ELEMENT_SET_NO":999,"REV_AT_EPOCH":16077,"BSTAR":1.7433167e-5,"MEAN_MOTION_DOT":3.2e-7,"MEAN_MOTION_DDOT":0},{"OBJECT_NAME":"STARLINK-5140","OBJECT_ID":"2023-046BH","EPOCH":"2026-02-28T06:14:49.940736","MEAN_MOTION":15.025366,"ECCENTRICITY":0.00013145,"INCLINATION":43.0031,"RA_OF_ASC_NODE":158.968,"ARG_OF_PERICENTER":271.2264,"MEAN_ANOMALY":88.8428,"EPHEMERIS_TYPE":0,"CLASSIFICATION_TYPE":"U","NORAD_CAT_ID":56147,"ELEMENT_SET_NO":999,"REV_AT_EPOCH":16123,"BSTAR":3.463734e-5,"MEAN_MOTION_DOT":2.64e-6,"MEAN_MOTION_DDOT":0},{"OBJECT_NAME":"STARLINK-5089","OBJECT_ID":"2023-046BJ","EPOCH":"2026-02-28T06:19:37.950816","MEAN_MOTION":15.02548025,"ECCENTRICITY":0.00011509,"INCLINATION":43.0025,"RA_OF_ASC_NODE":158.9953,"ARG_OF_PERICENTER":271.8297,"MEAN_ANOMALY":88.2413,"EPHEMERIS_TYPE":0,"CLASSIFICATION_TYPE":"U","NORAD_CAT_ID":56148,"ELEMENT_SET_NO":999,"REV_AT_EPOCH":16123,"BSTAR":-0.00021645053,"MEAN_MOTION_DOT":-3.127e-5,"MEAN_MOTION_DDOT":0}]
