STARLINK-6117           
1 56130U 23046AQ  26059.07441470  .00000706  00000+0  67333-4 0  9997
2 56130  43.0030 198.3854 0001331 271.7860  88.2830 15.02536103160769
STARLINK-6120           
1 56131U 23046AR  26058.66111791  .00000777  00000+0  72551-4 0  9998
2 56131  43.0021 200.4393 0001225 267.1409  92.9293 15.02539784160700
STARLINK-6071           
1 56132U 23046AS  26059.07108703 -.00000080  00000+0  91651-5 0  9995
2 56132  43.0020 198.3548 0001705 268.5511  91.5136 15.02533154160761
STARLINK-5566           
1 56133U 23046AT  26058.78408856  .00000064  00000+0  19815-4 0  9997
2 56133  43.0041 199.6411 0001257 269.2494  90.8204 15.02533131160727
STARLINK-5564           
1 56134U 23046AU  26059.06775762  .00000173  00000+0  27915-4 0  9994
2 56134  43.0035 198.3333 0001380 275.7781  84.2904 15.02534076160765
STARLINK-5489           
1 56136U 23046AW  26059.06331909 -.00000740  00000+0 -39683-4 0  9994
2 56136  43.0015 198.3021 0001092 279.8218  80.2501 15.02546681160763
STARLINK-5090           
1 56137U 23046AX  26059.10759738  .00000060  00000+0  19484-4 0  9994
2 56137  43.0027 197.7708 0001079 269.2083  90.8635 15.02534483160773
STARLINK-4774           
1 56138U 23046AY  26058.65779220  .00000083  00000+0  21224-4 0  9992
2 56138  43.0032 200.4172 0001458 271.6648  88.4027 15.02534289160707
STARLINK-5375           
1 56140U 23046BA  26058.65557098  .00001344  00000+0  11459-3 0  9991
2 56140  43.0040 200.3996 0001503 279.0236  81.0436 15.02529343160706
STARLINK-5377           
1 56141U 23046BB  26059.10648438  .00000645  00000+0  62782-4 0  9991
2 56141  43.0033 197.7601 0001292 267.5043  92.5651 15.02536649160774
STARLINK-5376           
1 56142U 23046BC  26058.65224483  .00001195  00000+0  10350-3 0  9995
2 56142  42.9995 200.3681 0000999 267.8593  92.2135 15.02531458160705
STARLINK-5016           
1 56143U 23046BD  26059.10094002  .00000310  00000+0  38012-4 0  9993
2 56143  43.0034 197.7214 0001189 264.8887  95.1819 15.02532559160779
STARLINK-5374           
1 56144U 23046BE  26059.11425796  .00000241  00000+0  32932-4 0  9991
2 56144  43.0029 197.8176 0001388 265.5378  94.5305 15.02532734160774
STARLINK-5111           
1 56146U 23046BG  26059.10316017  .00000032  00000+0  17433-4 0  9994
2 56146  43.0042 197.7337 0001570 267.3197  92.7465 15.02531508160776
STARLINK-5140           
1 56147U 23046BH  26059.26030024  .00000264  00000+0  34637-4 0  9995
2 56147  43.0031 158.9680 0001314 271.2264  88.8428 15.02536600161235
STARLINK-5089           
1 56148U 23046BJ  26059.26363369 -.00003127  00000+0 -21645-3 0  9994
2 56148  43.0025 158.9953 0001150 271.8297  88.2413 15.02548025161234
